{"type": "FeatureCollection", "features": [ {"type": "Feature", "properties": {"norad_id": 35771, "name": "COSMOS 2251 DEB", "group": "cosmos-2251-debris", "lat": -73.27690866264766, "lon": -165.12737807108027, "alt_km": 702.4768044418315, "timestamp": "2025-12-16T08:59:43.558213+00:00", "meta": {"OBJECT_NAME": "COSMOS 2251 DEB", "OBJECT_ID": "1993-036ARR", "EPOCH": "2025-12-15T14:45:16.238592", "MEAN_MOTION": 14.13430046, "ECCENTRICITY": 0.02280549, "INCLINATION": 74.1561, "RA_OF_ASC_NODE": 305.27, "ARG_OF_PERICENTER": 242.9998, "MEAN_ANOMALY": 114.7698, "EPHEMERIS_TYPE": 0, "CLASSIFICATION_TYPE": "U", "NORAD_CAT_ID": 35771, "ELEMENT_SET_NO": 999, "REV_AT_EPOCH": 82901, "BSTAR": 0.0026764238, "MEAN_MOTION_DOT": 6.427e-05, "MEAN_MOTION_DDOT": 0}, "tle": {"line1": "1 35771U 93036ARR 25349.61477128  .00006427  00000+0  26764-2 0  9998", "line2": "2 35771  74.1561 305.2700 0228054 242.9998 114.7698 14.13430046829012"}}, "geometry": {"type": "Point", "coordinates": [-165.12737807108027, -73.27690866264766]}}, {"type": "Feature", "properties": {"norad_id": 35773, "name": "COSMOS 2251 DEB", "group": "cosmos-2251-debris", "lat": 50.153438573380434, "lon": -6.0511862040220485, "alt_km": 675.6976197940367, "timestamp": "2025-12-16T08:59:43.558224+00:00", "meta": {"OBJECT_NAME": "COSMOS 2251 DEB", "OBJECT_ID": "1993-036ART", "EPOCH": "2025-12-14T09:07:49.552896", "MEAN_MOTION": 14.62081446, "ECCENTRICITY": 0.00454772, "INCLINATION": 74.0079, "RA_OF_ASC_NODE": 337.6732, "ARG_OF_PERICENTER": 137.2699, "MEAN_ANOMALY": 223.2019, "EPHEMERIS_TYPE": 0, "CLASSIFICATION_TYPE": "U", "NORAD_CAT_ID": 35773, "ELEMENT_SET_NO": 999, "REV_AT_EPOCH": 86863, "BSTAR": 0.00066463564, "MEAN_MOTION_DOT": 3.359e-05, "MEAN_MOTION_DDOT": 0}, "tle": {"line1": "1 35773U 93036ART 25348.38043464  .00003359  00000+0  66464-3 0  9998", "line2": "2 35773  74.0079 337.6732 0045477 137.2699 223.2019 14.62081446868635"}}, "geometry": {"type": "Point", "coordinates": [-6.0511862040220485, 50.153438573380434]}}, {"type": "Feature", "properties": {"norad_id": 35777, "name": "COSMOS 2251 DEB", "group": "cosmos-2251-debris", "lat": 67.26384879865465, "lon": 0.9632897478223584, "alt_km": 1339.129256628682, "timestamp": "2025-12-16T08:59:43.558234+00:00", "meta": {"OBJECT_NAME": "COSMOS 2251 DEB", "OBJECT_ID": "1993-036ARX", "EPOCH": "2025-12-14T09:03:39.038688", "MEAN_MOTION": 13.41304599, "ECCENTRICITY": 0.04522665, "INCLINATION": 73.7708, "RA_OF_ASC_NODE": 320.1235, "ARG_OF_PERICENTER": 214.7192, "MEAN_ANOMALY": 302.0214, "EPHEMERIS_TYPE": 0, "CLASSIFICATION_TYPE": "U", "NORAD_CAT_ID": 35777, "ELEMENT_SET_NO": 999, "REV_AT_EPOCH": 79706, "BSTAR": 0.00047090118, "MEAN_MOTION_DOT": 4.55e-06, "MEAN_MOTION_DDOT": 0}, "tle": {"line1": "1 35777U 93036ARX 25348.37753517  .00000455  00000+0  47090-3 0  9996", "line2": "2 35777  73.7708 320.1235 0452266 214.7192 302.0214 13.41304599797060"}}, "geometry": {"type": "Point", "coordinates": [0.9632897478223584, 67.26384879865465]}}, {"type": "Feature", "properties": {"norad_id": 35784, "name": "COSMOS 2251 DEB", "group": "cosmos-2251-debris", "lat": -73.85018551567764, "lon": 1.642509240868762, "alt_km": 717.2688312667597, "timestamp": "2025-12-16T08:59:43.558244+00:00", "meta": {"OBJECT_NAME": "COSMOS 2251 DEB", "OBJECT_ID": "1993-036ASE", "EPOCH": "2025-12-13T00:15:55.997856", "MEAN_MOTION": 14.5004387, "ECCENTRICITY": 0.00418068, "INCLINATION": 74.0388, "RA_OF_ASC_NODE": 89.1969, "ARG_OF_PERICENTER": 220.0486, "MEAN_ANOMALY": 139.759, "EPHEMERIS_TYPE": 0, "CLASSIFICATION_TYPE": "U", "NORAD_CAT_ID": 35784, "ELEMENT_SET_NO": 999, "REV_AT_EPOCH": 65710, "BSTAR": 0.00055772353, "MEAN_MOTION_DOT": 2.158e-05, "MEAN_MOTION_DDOT": 0}, "tle": {"line1": "1 35784U 93036ASE 25347.01106479  .00002158  00000+0  55772-3 0  9991", "line2": "2 35784  74.0388  89.1969 0041806 220.0486 139.7590 14.50043870657107"}}, "geometry": {"type": "Point", "coordinates": [1.642509240868762, -73.85018551567764]}}, {"type": "Feature", "properties": {"norad_id": 35786, "name": "COSMOS 2251 DEB", "group": "cosmos-2251-debris", "lat": 39.9513561083632, "lon": 50.64786444078301, "alt_km": 682.7663486008851, "timestamp": "2025-12-16T08:59:43.558254+00:00", "meta": {"OBJECT_NAME": "COSMOS 2251 DEB", "OBJECT_ID": "1993-036ASG", "EPOCH": "2025-12-15T09:52:44.296320", "MEAN_MOTION": 14.66258065, "ECCENTRICITY": 0.00338085, "INCLINATION": 74.0143, "RA_OF_ASC_NODE": 38.6119, "ARG_OF_PERICENTER": 167.8443, "MEAN_ANOMALY": 192.355, "EPHEMERIS_TYPE": 0, "CLASSIFICATION_TYPE": "U", "NORAD_CAT_ID": 35786, "ELEMENT_SET_NO": 999, "REV_AT_EPOCH": 73447, "BSTAR": 0.00061953954, "MEAN_MOTION_DOT": 3.413e-05, "MEAN_MOTION_DDOT": 0}, "tle": {"line1": "1 35786U 93036ASG 25349.41162380  .00003413  00000+0  61954-3 0  9996", "line2": "2 35786  74.0143  38.6119 0033808 167.8443 192.3550 14.66258065734476"}}, "geometry": {"type": "Point", "coordinates": [50.64786444078301, 39.9513561083632]}}, {"type": "Feature", "properties": {"norad_id": 35789, "name": "COSMOS 2251 DEB", "group": "cosmos-2251-debris", "lat": 56.28789567040267, "lon": -56.90136284362742, "alt_km": 741.4421362320782, "timestamp": "2025-12-16T08:59:43.558276+00:00", "meta": {"OBJECT_NAME": "COSMOS 2251 DEB", "OBJECT_ID": "1993-036ASK", "EPOCH": "2025-12-15T19:20:38.431968", "MEAN_MOTION": 14.35988464, "ECCENTRICITY": 0.00474798, "INCLINATION": 74.0382, "RA_OF_ASC_NODE": 278.741, "ARG_OF_PERICENTER": 17.3889, "MEAN_ANOMALY": 342.8876, "EPHEMERIS_TYPE": 0, "CLASSIFICATION_TYPE": "U", "NORAD_CAT_ID": 35789, "ELEMENT_SET_NO": 999, "REV_AT_EPOCH": 61271, "BSTAR": 0.00012856759, "MEAN_MOTION_DOT": 3.52e-06, "MEAN_MOTION_DDOT": 0}, "tle": {"line1": "1 35789U 93036ASK 25349.80600037  .00000352  00000+0  12857-3 0  9995", "line2": "2 35789  74.0382 278.7410 0047479  17.3889 342.8876 14.35988464612711"}}, "geometry": {"type": "Point", "coordinates": [-56.90136284362742, 56.28789567040267]}}, {"type": "Feature", "properties": {"norad_id": 35793, "name": "COSMOS 2251 DEB", "group": "cosmos-2251-debris", "lat": -46.45083966012539, "lon": 35.52159518495326, "alt_km": 641.1674801301433, "timestamp": "2025-12-16T08:59:43.558287+00:00", "meta": {"OBJECT_NAME": "COSMOS 2251 DEB", "OBJECT_ID": "1993-036ASP", "EPOCH": "2025-12-13T21:40:35.178816", "MEAN_MOTION": 14.78725725, "ECCENTRICITY": 0.00024095, "INCLINATION": 74.041, "RA_OF_ASC_NODE": 57.8966, "ARG_OF_PERICENTER": 115.747, "MEAN_ANOMALY": 3.1573, "EPHEMERIS_TYPE": 0, "CLASSIFICATION_TYPE": "U", "NORAD_CAT_ID": 35793, "ELEMENT_SET_NO": 999, "REV_AT_EPOCH": 65814, "BSTAR": 0.001778655, "MEAN_MOTION_DOT": 0.0001305, "MEAN_MOTION_DDOT": 0}, "tle": {"line1": "1 35793U 93036ASP 25347.90318494  .00013050  00000+0  17787-2 0  9997", "line2": "2 35793  74.0410  57.8966 0002409 115.7470   3.1573 14.78725725658147"}}, "geometry": {"type": "Point", "coordinates": [35.52159518495326, -46.45083966012539]}}, {"type": "Feature", "properties": {"norad_id": 35824, "name": "COSMOS 2251 DEB", "group": "cosmos-2251-debris", "lat": -50.57913707402104, "lon": -116.81226968833025, "alt_km": 984.8051960774246, "timestamp": "2025-12-16T08:59:43.558297+00:00", "meta": {"OBJECT_NAME": "COSMOS 2251 DEB", "OBJECT_ID": "1993-036ASW", "EPOCH": "2025-12-15T12:52:37.053408", "MEAN_MOTION": 13.88430476, "ECCENTRICITY": 0.02484305, "INCLINATION": 73.8468, "RA_OF_ASC_NODE": 43.9833, "ARG_OF_PERICENTER": 129.6204, "MEAN_ANOMALY": 232.7142, "EPHEMERIS_TYPE": 0, "CLASSIFICATION_TYPE": "U", "NORAD_CAT_ID": 35824, "ELEMENT_SET_NO": 999, "REV_AT_EPOCH": 84266, "BSTAR": 0.00076644061, "MEAN_MOTION_DOT": 1.153e-05, "MEAN_MOTION_DDOT": 0}, "tle": {"line1": "1 35824U 93036ASW 25349.53653997  .00001153  00000+0  76644-3 0  9992", "line2": "2 35824  73.8468  43.9833 0248430 129.6204 232.7142 13.88430476842666"}}, "geometry": {"type": "Point", "coordinates": [-116.81226968833025, -50.57913707402104]}}, {"type": "Feature", "properties": {"norad_id": 35825, "name": "COSMOS 2251 DEB", "group": "cosmos-2251-debris", "lat": 18.321096214731927, "lon": 142.07701834559222, "alt_km": 1212.608727864711, "timestamp": "2025-12-16T08:59:43.558308+00:00", "meta": {"OBJECT_NAME": "COSMOS 2251 DEB", "OBJECT_ID": "1993-036ASX", "EPOCH": "2025-12-14T02:36:29.406816", "MEAN_MOTION": 13.70963524, "ECCENTRICITY": 0.03526119, "INCLINATION": 74.113, "RA_OF_ASC_NODE": 140.3902, "ARG_OF_PERICENTER": 235.9093, "MEAN_ANOMALY": 120.8102, "EPHEMERIS_TYPE": 0, "CLASSIFICATION_TYPE": "U", "NORAD_CAT_ID": 35825, "ELEMENT_SET_NO": 999, "REV_AT_EPOCH": 82527, "BSTAR": 0.0023333684, "MEAN_MOTION_DOT": 3.214e-05, "MEAN_MOTION_DDOT": 0}, "tle": {"line1": "1 35825U 93036ASX 25348.10867369  .00003214  00000+0  23334-2 0  9992", "line2": "2 35825  74.1130 140.3902 0352611 235.9093 120.8102 13.70963524825277"}}, "geometry": {"type": "Point", "coordinates": [142.07701834559222, 18.321096214731927]}}, {"type": "Feature", "properties": {"norad_id": 35829, "name": "COSMOS 2251 DEB", "group": "cosmos-2251-debris", "lat": -17.781491247443142, "lon": -83.04466178322085, "alt_km": 642.8500886069423, "timestamp": "2025-12-16T08:59:43.558318+00:00", "meta": {"OBJECT_NAME": "COSMOS 2251 DEB", "OBJECT_ID": "1993-036ATB", "EPOCH": "2025-12-14T00:48:22.506048", "MEAN_MOTION": 14.76339353, "ECCENTRICITY": 0.00060216, "INCLINATION": 74.0232, "RA_OF_ASC_NODE": 96.2701, "ARG_OF_PERICENTER": 150.1263, "MEAN_ANOMALY": 210.0256, "EPHEMERIS_TYPE": 0, "CLASSIFICATION_TYPE": "U", "NORAD_CAT_ID": 35829, "ELEMENT_SET_NO": 999, "REV_AT_EPOCH": 87794, "BSTAR": 0.0017696749, "MEAN_MOTION_DOT": 0.00012277, "MEAN_MOTION_DDOT": 0}, "tle": {"line1": "1 35829U 93036ATB 25348.03359382  .00012277  00000+0  17697-2 0  9993", "line2": "2 35829  74.0232  96.2701 0006021 150.1263 210.0256 14.76339353877944"}}, "geometry": {"type": "Point", "coordinates": [-83.04466178322085, -17.781491247443142]}}]}